     2              NAVIGATION DATA                         RINEX VERSION / TYPE
CCRINEXN V1.6.0 UX  CDDIS               20-JUL-06 02:51     PGM / RUN BY / DATE 
IGS BROADCAST EPHEMERIS FILE                                COMMENT             
    0.4657E-08  0.1490E-07 -0.5960E-07 -0.1192E-06          ION ALPHA           
    0.7987E+05  0.8192E+05 -0.6554E+05 -0.4588E+06          ION BETA            
    0.558793544769E-08 0.150990331349E-13   405504     1384 DELTA-UTC: A0,A1,T,W
    14                                                      LEAP SECONDS        
                                                            END OF HEADER       
11 06  7 19  2  0  0.0 0.340081285685E-03 0.216004991671E-11 0.000000000000E+00
    0.194000000000E+03 0.811250000000E+02 0.602632244909E-08 0.685583654911E-01
    0.421516597271E-05 0.554594572168E-02 0.751577317715E-05 0.515369880486E+04
    0.266400000000E+06 0.353902578354E-07-0.721346167832E+00 0.447034835815E-07
    0.896717789655E+00 0.196093750000E+03 0.372617046390E+00-0.883715381721E-08
   -0.173221501085E-09 0.100000000000E+01 0.138400000000E+04 0.000000000000E+00
    0.280000000000E+01 0.000000000000E+00-0.116415321827E-07 0.706000000000E+03
    0.260478000000E+06 0.400000000000E+01 0.000000000000E+00 0.000000000000E+00
13 06  7 19  2  0  0.0 0.783461146057E-04 0.306954461848E-11 0.000000000000E+00
    0.270000000000E+02-0.721562500000E+02 0.355264798205E-08 0.266398540866E+01
   -0.375136733055E-05 0.314486189745E-02 0.713020563126E-05 0.515375842476E+04
    0.266400000000E+06 0.260770320892E-07 0.154921363744E+01 0.372529029846E-08
    0.992172585753E+00 0.257750000000E+03 0.123361158785E+01-0.763924677672E-08
    0.357157734196E-10 0.100000000000E+01 0.138400000000E+04 0.000000000000E+00
    0.280000000000E+01 0.000000000000E+00-0.111758708954E-07 0.283000000000E+03
    0.259218000000E+06 0.400000000000E+01 0.000000000000E+00 0.000000000000E+00
14 06  7 19  2  0  0.0-0.956142321229E-05 0.795807864051E-12 0.000000000000E+00
    0.430000000000E+02-0.883125000000E+02 0.368658213237E-08 0.210099316088E+01
   -0.441819429398E-05 0.240441109054E-02 0.768713653088E-05 0.515367130279E+04
    0.266400000000E+06-0.186264514923E-07 0.153576362859E+01-0.726431608200E-07
    0.986307770581E+00 0.242593750000E+03-0.212817891865E+01-0.776139472182E-08
    0.532165023952E-10 0.100000000000E+01 0.138400000000E+04 0.000000000000E+00
    0.200000000000E+01 0.000000000000E+00-0.931322574616E-08 0.299000000000E+03
    0.259218000000E+06 0.400000000000E+01 0.000000000000E+00 0.000000000000E+00
15 06  7 19  2  0  0.0 0.647320412099E-03 0.636646291241E-11 0.000000000000E+00
    0.220000000000E+03 0.102906250000E+03 0.460769200572E-08-0.472485627254E+00
    0.518001616001E-05 0.982588750776E-02 0.664778053761E-05 0.515367625427E+04
    0.266400000000E+06 0.372529029846E-07-0.496840031427E+00-0.240281224251E-06
    0.956312253353E+00 0.249687500000E+03 0.266780217363E+01-0.826212964711E-08
    0.821462776274E-11 0.100000000000E+01 0.138400000000E+04 0.000000000000E+00
    0.200000000000E+01 0.000000000000E+00-0.279396772385E-08 0.220000000000E+03
    0.260718000000E+06 0.400000000000E+01 0.000000000000E+00 0.000000000000E+00
16 06  7 19  2  0  0.0 0.577317550778E-04 0.284217094304E-11 0.000000000000E+00
    0.148000000000E+03-0.149687500000E+02 0.486270255108E-08-0.199184035768E+01
   -0.670552253723E-06 0.355786853470E-02 0.718235969543E-05 0.515374347496E+04
    0.266400000000E+06-0.633299350738E-07-0.265638442571E+01 0.316649675369E-07
    0.962587700853E+00 0.244468750000E+03-0.830511380967E+00-0.803569186168E-08
    0.725030200418E-10 0.100000000000E+01 0.138400000000E+04 0.000000000000E+00
    0.200000000000E+01 0.000000000000E+00-0.977888703346E-08 0.148000000000E+03
    0.259218000000E+06 0.400000000000E+01 0.000000000000E+00 0.000000000000E+00
17 06  7 19  2  0  0.0 0.100176781416E-03-0.227373675443E-12 0.000000000000E+00
    0.223000000000E+03 0.220000000000E+02 0.452268838813E-08-0.306823721002E+01
    0.114180147648E-05 0.208402122371E-02 0.941008329391E-05 0.515371131897E+04
    0.266400000000E+06-0.372529029846E-07-0.161741942211E+01 0.353902578354E-07
    0.959703620765E+00 0.198156250000E+03 0.308512672798E+01-0.787354225035E-08
   -0.328942273195E-09 0.100000000000E+01 0.138400000000E+04 0.000000000000E+00
    0.280000000000E+01 0.000000000000E+00-0.931322574616E-08 0.479000000000E+03
    0.263688000000E+06 0.400000000000E+01 0.000000000000E+00 0.000000000000E+00
18 06  7 19  2  0  0.0-0.243537127972E-03-0.125055521494E-11 0.000000000000E+00
    0.390000000000E+02-0.975000000000E+01 0.461162086296E-08-0.198165748086E+01
   -0.460073351860E-06 0.739430414978E-02 0.283867120743E-05 0.515369722366E+04
    0.266400000000E+06-0.484287738800E-07 0.518474456885E+00-0.819563865662E-07
    0.957489551306E+00 0.324500000000E+03-0.267675790795E+01-0.829427371230E-08
   -0.346443013166E-10 0.100000000000E+01 0.138400000000E+04 0.000000000000E+00
    0.280000000000E+01 0.000000000000E+00-0.102445483208E-07 0.295000000000E+03
    0.259572000000E+06 0.400000000000E+01 0.000000000000E+00 0.000000000000E+00
19 06  7 19  2  0  0.0 0.154227018356E-05 0.250111042988E-11 0.000000000000E+00
    0.150000000000E+02 0.218125000000E+02 0.464305054455E-08 0.295185304622E+01
    0.132434070110E-05 0.359632470645E-02 0.100992619991E-04 0.515363184738E+04
    0.266400000000E+06 0.633299350738E-07-0.155812402569E+01 0.409781932831E-07
    0.957658108727E+00 0.180218750000E+03-0.122836890638E+01-0.793354474970E-08
   -0.358586365133E-09 0.100000000000E+01 0.138400000000E+04 0.000000000000E+00
    0.200000000000E+01 0.000000000000E+00-0.144354999065E-07 0.271000000000E+03
    0.259218000000E+06 0.400000000000E+01 0.000000000000E+00 0.000000000000E+00
21 06  7 19  2  0  0.0 0.424599274993E-04 0.227373675443E-11 0.000000000000E+00
    0.150000000000E+02 0.103656250000E+03 0.490413265553E-08-0.731254825047E+00
    0.525824725628E-05 0.115219544386E-01 0.653788447380E-05 0.515370496941E+04
    0.266400000000E+06 0.284984707832E-06-0.534657461486E+00-0.968575477600E-07
    0.942817521643E+00 0.244125000000E+03-0.294825210994E+01-0.838677749471E-08
   -0.439304009836E-10 0.100000000000E+01 0.138400000000E+04 0.000000000000E+00
    0.200000000000E+01 0.000000000000E+00-0.116415321827E-07 0.150000000000E+02
    0.259218000000E+06 0.400000000000E+01 0.000000000000E+00 0.000000000000E+00
22 06  7 19  2  0  0.0 0.117569230497E-03 0.386535248253E-11 0.000000000000E+00
    0.870000000000E+02-0.393750000000E+01 0.467340877108E-08 0.268132930312E+01
   -0.219792127609E-06 0.475981016643E-02 0.278092920780E-05 0.515368021393E+04
    0.266400000000E+06 0.223517417908E-07 0.526472408501E+00 0.540167093277E-07
    0.955026289844E+00 0.323125000000E+03-0.165819705813E+01-0.831391755440E-08
   -0.101075640913E-09 0.100000000000E+01 0.138400000000E+04 0.000000000000E+00
    0.200000000000E+01 0.000000000000E+00-0.181607902050E-07 0.343000000000E+03
    0.266328000000E+06 0.400000000000E+01 0.000000000000E+00 0.000000000000E+00
23 06  7 19  2  0  0.0 0.138266012073E-03-0.341060513165E-12 0.000000000000E+00
    0.450000000000E+02-0.792500000000E+02 0.416517349620E-08 0.198050165561E+01
   -0.402703881264E-05 0.470366165973E-02 0.652484595776E-05 0.515375578690E+04
    0.266400000000E+06 0.558793544769E-08 0.152131698194E+01 0.707805156708E-07
    0.968558039233E+00 0.258000000000E+03 0.244894792174E+01-0.790318634229E-08
   -0.282154610015E-10 0.100000000000E+01 0.138400000000E+04 0.000000000000E+00
    0.200000000000E+01 0.000000000000E+00-0.209547579289E-07 0.450000000000E+02
    0.259218000000E+06 0.400000000000E+01 0.000000000000E+00 0.000000000000E+00
24 06  7 19  2  0  0.0 0.217389315367E-04 0.295585778076E-11 0.000000000000E+00
    0.121000000000E+03 0.822812500000E+02 0.447947230229E-08-0.377062892469E-02
    0.430643558502E-05 0.914386333898E-02 0.711157917976E-05 0.515390834999E+04
    0.266400000000E+06-0.372529029846E-07-0.520287714586E+00-0.141561031342E-06
    0.959488715173E+00 0.245093750000E+03-0.904608951177E+00-0.822319967213E-08
   -0.957182727646E-10 0.100000000000E+01 0.138400000000E+04 0.000000000000E+00
    0.200000000000E+01 0.000000000000E+00-0.931322574616E-09 0.121000000000E+03
    0.259218000000E+06 0.400000000000E+01 0.000000000000E+00 0.000000000000E+00
25 06  7 19  2  0  0.0 0.170375220478E-03 0.740101313568E-10 0.000000000000E+00
    0.166000000000E+03-0.390000000000E+02 0.468769526132E-08-0.177462137610E+00
   -0.226311385632E-05 0.125623941421E-01 0.867061316967E-05 0.515365387726E+04
    0.266400000000E+06-0.160187482834E-06 0.247701172002E+01-0.558793544769E-07
    0.954898932585E+00 0.211125000000E+03-0.133550299674E+01-0.825427239501E-08
    0.464662212189E-09 0.100000000000E+01 0.138400000000E+04 0.000000000000E+00
    0.570000000000E+01 0.000000000000E+00-0.698491930962E-08 0.166000000000E+03
    0.259218000000E+06 0.400000000000E+01 0.000000000000E+00 0.000000000000E+00
26 06  7 19  2  0  0.0-0.184618867934E-03-0.131876731757E-10 0.000000000000E+00
    0.130000000000E+03-0.718750000000E+02 0.374158437566E-08 0.102813375856E+01
   -0.371038913727E-05 0.174782921094E-01 0.810064375401E-05 0.515370368195E+04
    0.266400000000E+06-0.182539224625E-06 0.154985713706E+01 0.102445483208E-06
    0.990307804078E+00 0.243000000000E+03 0.806367704292E+00-0.793783083708E-08
   -0.178578873911E-09 0.100000000000E+01 0.138400000000E+04 0.000000000000E+00
    0.200000000000E+01 0.000000000000E+00-0.651925802231E-08 0.386000000000E+03
    0.259218000000E+06 0.400000000000E+01 0.000000000000E+00 0.000000000000E+00
